ONEWEB-0233             
1 48795U 21045AE  26197.14878480  .00000219  00000+0  54689-3 0  9996
2 48795  87.8982 253.4637 0002284 104.4698 255.6686 13.15551105248105
ONEWEB-0190             
1 48796U 21045AF  26197.21231050  .00000069  00000+0  15039-3 0  9990
2 48796  87.8991 253.4147 0002287 116.1270 244.0096 13.15548038248187
ONEWEB-0236             
1 48797U 21045AG  26197.15368660  .00000232  00000+0  58153-3 0  9998
2 48797  87.8984 253.4342 0002139  95.5426 264.5948 13.15548377248062
ONEWEB-0248             
1 48798U 21045AH  26197.16635460  .00000017  00000+0  12351-4 0  9997
2 48798  87.8994 253.4183 0002464 106.0294 254.1108 13.15549225248223
ONEWEB-0225             
1 48799U 21045AJ  26197.18854605 -.00000141  00000+0 -40836-3 0  9992
2 48799  87.8988 253.4210 0002281 111.8550 248.2823 13.15547699248236
ONEWEB-0215             
1 48800U 21045AK  26197.15843000  .00000182  00000+0  45034-3 0  9997
2 48800  87.8996 253.4109 0002429 113.3323 246.8063 13.15549560248109
ONEWEB-0216             
1 48801U 21045AL  26197.16794589  .00000038  00000+0  66207-4 0  9992
2 48801  87.8992 253.4226 0002017  97.2957 262.8403 13.15548290248118
ONEWEB-0239             
1 48802U 21045AM  26197.17270097 -.00000016  00000+0 -77487-4 0  9997
2 48802  87.8981 253.4256 0002738 110.2736 249.8689 13.15548252248154
ONEWEB-0249             
1 48967U 21060A   26197.08371212  .00000080  00000+0  17553-3 0  9993
2 48967  87.9080 223.0380 0002170  95.1533 264.9846 13.16592713243413
ONEWEB-0250             
1 48968U 21060B   26197.13620289 -.00000025  00000+0 -86661-4 0  9999
2 48968  87.9080 220.6896 0003062  85.1535 274.9950 13.25835235244058
ONEWEB-0252             
1 48970U 21060D   26197.11460334 -.00000007  00000+0 -53172-4 0  9994
2 48970  87.9078 223.0243 0001865  96.3537 263.7806 13.16595029243460
ONEWEB-0253             
1 48971U 21060E   26197.10352177 -.00000039  00000+0 -13536-3 0  9993
2 48971  87.9079 223.0319 0002213  93.5781 266.5603 13.16595195243396
ONEWEB-0254             
1 48972U 21060F   26197.11302833  .00000006  00000+0 -17548-4 0  9990
2 48972  87.9080 223.0281 0002333  98.7780 261.3616 13.16594133243394
ONEWEB-0255             
1 48973U 21060G   26197.30302031  .00000024  00000+0  28447-4 0  9991
2 48973  87.9079 222.9963 0002169  97.9017 262.2360 13.16594455243493
ONEWEB-0256             
1 48974U 21060H   26197.10115226 -.00001077  00000+0 -28512-2 0  9990
2 48974  87.9079 223.0392 0001822  92.9547 267.1792 13.16582443243431
ONEWEB-0257             
1 48975U 21060J   26197.13360995  .00000092  00000+0  20743-3 0  9992
2 48975  87.9076 223.0215 0002050  98.3909 261.7455 13.16593794243391
